{
    "links": {
        "self": "http://www.neowsapp.com/rest/v1/neo/54050968?api_key=iIulBulltgU6a56xZRHN4H3l9WmuAYTsLGpBGhQ2"
    },
    "id": "54050968",
    "neo_reference_id": "54050968",
    "name": "(2020 OB7)",
    "designation": "2020 OB7",
    "nasa_jpl_url": "http://ssd.jpl.nasa.gov/sbdb.cgi?sstr=54050968",
    "absolute_magnitude_h": 26.038,
    "estimated_diameter": {
        "kilometers": {
            "estimated_diameter_min": 0.0164799154,
            "estimated_diameter_max": 0.036850211
        },
        "meters": {
            "estimated_diameter_min": 16.4799153507,
            "estimated_diameter_max": 36.8502109875
        },
        "miles": {
            "estimated_diameter_min": 0.0102401415,
            "estimated_diameter_max": 0.0228976525
        },
        "feet": {
            "estimated_diameter_min": 54.0679654791,
            "estimated_diameter_max": 120.8996462163
        }
    },
    "is_potentially_hazardous_asteroid": false,
    "close_approach_data": [
        {
            "close_approach_date": "2020-07-22",
            "close_approach_date_full": "2020-Jul-22 15:32",
            "epoch_date_close_approach": 1595431920000,
            "relative_velocity": {
                "kilometers_per_second": "0.8168584476",
                "kilometers_per_hour": "2940.690411387",
                "miles_per_hour": "1827.2306614532"
            },
            "miss_distance": {
                "astronomical": "0.1076347207",
                "lunar": "41.8699063523",
                "kilometers": "16101924.954764909",
                "miles": "10005272.2162533842"
            },
            "orbiting_body": "Earth"
        }
    ],
    "orbital_data": {
        "orbit_id": "2",
        "orbit_determination_date": "2020-08-12 06:23:57",
        "first_observation_date": "2020-07-29",
        "last_observation_date": "2020-08-11",
        "data_arc_in_days": 13,
        "observations_used": 14,
        "orbit_uncertainty": "8",
        "minimum_orbit_intersection": ".104588",
        "jupiter_tisserand_invariant": "5.063",
        "epoch_osculation": "2459067.5",
        "eccentricity": ".1210287272825263",
        "semi_major_axis": "1.275163075126582",
        "inclination": "1.318342095163971",
        "ascending_node_longitude": "113.735455431863",
        "orbital_period": "525.9531002702561",
        "perihelion_distance": "1.120831711066339",
        "perihelion_argument": "181.561937770326",
        "aphelion_distance": "1.429494439186824",
        "perihelion_time": "2459046.498898141746",
        "mean_anomaly": "14.37465938519347",
        "mean_motion": ".6844716759251298",
        "equinox": "J2000",
        "orbit_class": {
            "orbit_class_type": "AMO",
            "orbit_class_description": "Near-Earth asteroid orbits similar to that of 1221 Amor",
            "orbit_class_range": "1.017 AU < q (perihelion) < 1.3 AU"
        }
    },
    "is_sentry_object": false
}